STARLINK-37321          
1 69198U 26114S   26160.22005557  .00188576  00000+0  93655-3 0  9993
2 69198  53.1594 242.0425 0001086  52.7127 307.3995 15.80912173  3512
STARLINK-37406          
1 69199U 26114T   26160.21930568  .00132874  00000+0  66520-3 0  9993
2 69199  53.1589 242.0368 0001253  45.0163 315.0961 15.80913220  3517
STARLINK-37761          
1 69200U 26114U   26160.21855559  .00162939  00000+0  81180-3 0  9996
2 69200  53.1589 242.0312 0001101  46.0798 314.0316 15.80920719  3510
STARLINK-37754          
1 69201U 26114V   26160.21761211  .00156768  00000+0  78165-3 0  9990
2 69201  53.1587 242.0254 0000956  67.8681 292.2444 15.80923297  3516
STARLINK-37649          
1 69202U 26114W   26160.21705364  .00162009  00000+0  80710-3 0  9992
2 69202  53.1587 242.0221 0000937  36.6639 323.4448 15.80925275  3516
STARLINK-37604          
1 69203U 26114X   26160.21630432  .00153593  00000+0  76636-3 0  9996
2 69203  53.1587 242.0171 0001084  29.2350 330.8734 15.80918110  3513
STARLINK-37669          
1 69204U 26114Y   26160.21555488  .00164254  00000+0  81809-3 0  9998
2 69204  53.1587 242.0119 0001491  29.5189 330.5918 15.80923236  3517
STARLINK-37691          
1 69205U 26114Z   26160.25003472  .00021870  00000+0  12957-3 0  9998
2 69205  53.1596 241.8408 0000877  82.5500 112.2270 15.78038834  3535
STARLINK-37671          
1 69206U 26114AA  26160.21405349  .00149644  00000+0  74696-3 0  9992
2 69206  53.1586 242.0013 0001188  40.0829 320.0281 15.80921824  3511
STARLINK-37647          
1 69207U 26114AB  26160.21480390  .00169188  00000+0  84264-3 0  9999
2 69207  53.1586 242.0069 0001397  27.7743 332.3354 15.80908926  3517
STARLINK-37562          
1 69208U 26114AC  26160.21255325  .00161816  00000+0  80620-3 0  9990
2 69208  53.1585 241.9912 0001227  33.7276 326.3825 15.80924188  3516
STARLINK-37682          
1 69209U 26114AD  26160.21180301  .00162952  00000+0  81203-3 0  9992
2 69209  53.1585 241.9861 0000819  62.7894 297.3212 15.80916281  3516
STARLINK-37402          
1 69210U 26114AE  26160.21105319  .00146152  00000+0  73021-3 0  9993
2 69210  53.1584 241.9810 0000903  53.0324 307.0782 15.80912706  3515
STARLINK-37613          
1 69211U 26115A   26160.25003472 -.02537203  00000+0 -27738-1 0  9993
2 69211  97.2841 177.2439 0001638 101.9946 140.0806 15.66736944  3411
STARLINK-37713          
1 69212U 26115B   26160.32141817 -.00340692  00000+0 -19979-2 0  9999
2 69212  97.2828 177.3514 0002918 125.0113 235.1429 15.79091799  3443
STARLINK-37716          
1 69213U 26115C   26160.32172179  .00079783  00000+0  41297-3 0  9992
2 69213  97.2833 177.3517 0001355  87.8582 272.2841 15.80841886  3444
STARLINK-37620          
1 69214U 26115D   26160.25003472 -.02511441  00000+0 -32589-1 0  9992
2 69214  97.2844 177.2331 0001826  81.1718 125.9398 15.62401023  3414
STARLINK-37700          
1 69215U 26115E   26160.25003472 -.02970734  00000+0 -56405-1 0  9990
2 69215  97.2849 177.1653 0001844  70.4934 338.8974 15.52317201  3415
STARLINK-37766          
1 69216U 26115F   26160.31871555  .00083489  00000+0  43195-3 0  9995
2 69216  97.2829 177.3553 0001582 114.9950 245.1483 15.80840773  3440
STARLINK-37763          
1 69217U 26115G   26160.31812482  .00093223  00000+0  48550-3 0  9997
2 69217  97.2828 177.3557 0004137 134.1747 225.9862 15.80658633  3440
STARLINK-37724          
1 69218U 26115H   26160.31724448  .00065597  00000+0  34030-3 0  9993
2 69218  97.2833 177.3574 0001467  90.4394 269.7043 15.80836800  3442
STARLINK-37758          
1 69219U 26115J   26160.25073186  .00198315  00000+0  10091-2 0  9998
2 69219  97.2828 177.2950 0000803 112.4460 247.6894 15.80893924  3434
STARLINK-37201          
1 69220U 26115K   26160.31526863  .00253481  00000+0  12799-2 0  9995
2 69220  97.2835 177.3601 0002091 112.8319 247.3171 15.80919782  3443
STARLINK-37728          
1 69221U 26115L   26160.31284966  .00226483  00000+0  11478-2 0  9996
2 69221  97.2833 177.3639 0001784 112.9044 247.2412 15.80909662  3440
STARLINK-37760          
1 69222U 26115M   26160.25228910  .00173655  00000+0  88658-3 0  9994
2 69222  97.2832 177.2932 0001215 135.3773 224.7593 15.80885852  3435
STARLINK-37759          
1 69223U 26115N   26160.24882891  .00208170  00000+0  10576-2 0  9992
2 69223  97.2829 177.2976 0000620  74.8551 285.2786 15.80901889  3435
STARLINK-37725          
1 69224U 26115P   26160.24939912  .00226115  00000+0  11464-2 0  9996
2 69224  97.2833 177.2970 0000785 115.7386 244.3963 15.80901661  3439
STARLINK-37770          
1 69225U 26115Q   26160.25000303  .00161287  00000+0  82501-3 0  9990
2 69225  97.2833 177.2958 0000863 100.9551 259.1815 15.80876773  3438
STARLINK-37736          
1 69226U 26115R   26159.99608386  .00432385  00000+0  21289-2 0  9990
2 69226  97.2832 177.0293 0001243 132.8788 227.2585 15.81011927  3395
STARLINK-37737          
1 69227U 26115S   26160.24729545  .00136652  00000+0  70132-3 0  9992
2 69227  97.2834 177.2990 0000941  96.9030 263.2345 15.80870003  3434
