OBJECT_NAME,OBJECT_ID,EPOCH,MEAN_MOTION,ECCENTRICITY,INCLINATION,RA_OF_ASC_NODE,ARG_OF_PERICENTER,MEAN_ANOMALY,EPHEMERIS_TYPE,CLASSIFICATION_TYPE,NORAD_CAT_ID,ELEMENT_SET_NO,REV_AT_EPOCH,BSTAR,MEAN_MOTION_DOT,MEAN_MOTION_DDOT
STARLINK-37321,2026-114S,2026-06-09T05:16:52.801248,15.80912173,.00010865,53.1594,242.0425,52.7127,307.3995,0,U,69198,999,351,.93654792E-3,.188576E-2,0
STARLINK-37406,2026-114T,2026-06-09T05:15:48.010752,15.80913220,.00012539,53.1589,242.0368,45.0163,315.0961,0,U,69199,999,351,.66519572E-3,.132874E-2,0
STARLINK-37761,2026-114U,2026-06-09T05:14:43.202976,15.80920719,.00011012,53.1589,242.0312,46.0798,314.0316,0,U,69200,999,351,.81179541E-3,.162939E-2,0
STARLINK-37754,2026-114V,2026-06-09T05:13:21.686304,15.80923297,.00009567,53.1587,242.0254,67.8681,292.2444,0,U,69201,999,351,.78165468E-3,.156768E-2,0
STARLINK-37649,2026-114W,2026-06-09T05:12:33.434496,15.80925275,.0000937,53.1587,242.0221,36.6639,323.4448,0,U,69202,999,351,.80710221E-3,.162009E-2,0
STARLINK-37604,2026-114X,2026-06-09T05:11:28.693248,15.80918110,.00010849,53.1587,242.0171,29.2350,330.8734,0,U,69203,999,351,.76635542E-3,.153593E-2,0
STARLINK-37669,2026-114Y,2026-06-09T05:10:23.941632,15.80923236,.0001491,53.1587,242.0119,29.5189,330.5918,0,U,69204,999,351,.81809237E-3,.164254E-2,0
STARLINK-37691,2026-114Z,2026-06-09T06:00:02.999808,15.78038834,.00008773,53.1596,241.8408,82.5500,112.2270,0,U,69205,999,353,.12956725E-3,.2187E-3,0
STARLINK-37671,2026-114AA,2026-06-09T05:08:14.221536,15.80921824,.00011881,53.1586,242.0013,40.0829,320.0281,0,U,69206,999,351,.74695852E-3,.149644E-2,0
STARLINK-37647,2026-114AB,2026-06-09T05:09:19.056960,15.80908926,.00013978,53.1586,242.0069,27.7743,332.3354,0,U,69207,999,351,.84263828E-3,.169188E-2,0
STARLINK-37562,2026-114AC,2026-06-09T05:06:04.600800,15.80924188,.0001227,53.1585,241.9912,33.7276,326.3825,0,U,69208,999,351,.80619871E-3,.161816E-2,0
STARLINK-37682,2026-114AD,2026-06-09T05:04:59.780064,15.80916281,.0000819,53.1585,241.9861,62.7894,297.3212,0,U,69209,999,351,.81202682E-3,.162952E-2,0
STARLINK-37402,2026-114AE,2026-06-09T05:03:54.995616,15.80912706,.00009033,53.1584,241.9810,53.0324,307.0782,0,U,69210,999,351,.73021484E-3,.146152E-2,0
STARLINK-37613,2026-115A,2026-06-09T06:00:02.999808,15.66736944,.00016384,97.2841,177.2439,101.9946,140.0806,0,U,69211,999,341,-.27738469E-1,-.2537203E-1,0
STARLINK-37713,2026-115B,2026-06-09T07:42:50.529888,15.79091799,.00029184,97.2828,177.3514,125.0113,235.1429,0,U,69212,999,344,-.19979176E-2,-.340692E-2,0
STARLINK-37716,2026-115C,2026-06-09T07:43:16.762656,15.80841886,.00013558,97.2833,177.3517,87.8582,272.2841,0,U,69213,999,344,.41297352E-3,.79783E-3,0
STARLINK-37620,2026-115D,2026-06-09T06:00:02.999808,15.62401023,.00018269,97.2844,177.2331,81.1718,125.9398,0,U,69214,999,341,-.32589096E-1,-.2511441E-1,0
STARLINK-37700,2026-115E,2026-06-09T06:00:02.999808,15.52317201,.00018443,97.2849,177.1653,70.4934,338.8974,0,U,69215,999,341,-.56404896E-1,-.2970734E-1,0
STARLINK-37766,2026-115F,2026-06-09T07:38:57.023520,15.80840773,.00015825,97.2829,177.3553,114.9950,245.1483,0,U,69216,999,344,.43195339E-3,.83489E-3,0
STARLINK-37763,2026-115G,2026-06-09T07:38:05.984448,15.80658633,.00041373,97.2828,177.3557,134.1747,225.9862,0,U,69217,999,344,.48549628E-3,.93223E-3,0
STARLINK-37724,2026-115H,2026-06-09T07:36:49.923072,15.80836800,.00014676,97.2833,177.3574,90.4394,269.7043,0,U,69218,999,344,.34030246E-3,.65597E-3,0
STARLINK-37758,2026-115J,2026-06-09T06:01:03.232704,15.80893924,.00008039,97.2828,177.2950,112.4460,247.6894,0,U,69219,999,343,.1009127E-2,.198315E-2,0
STARLINK-37201,2026-115K,2026-06-09T07:33:59.209632,15.80919782,.00020917,97.2835,177.3601,112.8319,247.3171,0,U,69220,999,344,.1279905E-2,.253481E-2,0
STARLINK-37728,2026-115L,2026-06-09T07:30:30.210624,15.80909662,.00017841,97.2833,177.3639,112.9044,247.2412,0,U,69221,999,344,.11477754E-2,.226483E-2,0
STARLINK-37760,2026-115M,2026-06-09T06:03:17.778240,15.80885852,.00012152,97.2832,177.2932,135.3773,224.7593,0,U,69222,999,343,.88658433E-3,.173655E-2,0
STARLINK-37759,2026-115N,2026-06-09T05:58:18.817824,15.80901889,.00006206,97.2829,177.2976,74.8551,285.2786,0,U,69223,999,343,.10576432E-2,.20817E-2,0
STARLINK-37725,2026-115P,2026-06-09T05:59:08.083968,15.80901661,.00007859,97.2833,177.2970,115.7386,244.3963,0,U,69224,999,343,.11463887E-2,.226115E-2,0
STARLINK-37770,2026-115Q,2026-06-09T06:00:00.261792,15.80876773,.00008634,97.2833,177.2958,100.9551,259.1815,0,U,69225,999,343,.82501269E-3,.161287E-2,0
STARLINK-37736,2026-115R,2026-06-08T23:54:21.645504,15.81011927,.00012438,97.2832,177.0293,132.8788,227.2585,0,U,69226,999,339,.21289394E-2,.432385E-2,0
STARLINK-37737,2026-115S,2026-06-09T05:56:06.326880,15.80870003,.00009418,97.2834,177.2990,96.9030,263.2345,0,U,69227,999,343,.70131677E-3,.136652E-2,0
